SEALSAT 1
1 12345U 12345A   13013.88534400 -.00000001  00000-0  00000-0 0  0016
2 12345  63.4350 062.5000 7500000 270.0000 360.0000  2.00000000000014
SEALSAT 2
1 12345U 12345A   13013.88534400 -.00000001  00000-0  00000-0 0  0016
2 12345  63.4350 182.5000 7500000 270.0000 120.0000  2.00000000000011
SEALSAT 3
1 12345U 12345A   13013.88534400 -.00000001  00000-0  00000-0 0  0016
2 12345  63.4350 302.5000 7500000 270.0000 240.0000  2.00000000000018
